start=new Date('2023-06-04T00:00:00.000Z').valueOf();
sats=[{"TLE_LINE2":"2 50848  53.2170  32.2722 0001181  91.4683 268.6444 15.08833540 77820","TLE_LINE1":"1 50848U 22001AX  23154.89400055  .00000456  00000-0  46770-4 0  9999","PERIAPSIS":"538.948","EPOCH":"2023-06-03T21:27:21.647520","ECCENTRICITY":"0.00011810","INCLINATION":"53.2170","COUNTRY_CODE":"US","ELEMENT_SET_NO":"999","TIME_SYSTEM":"UTC","LAUNCH_DATE":"2022-01-06","MEAN_MOTION_DDOT":"0.0000000000000","CENTER_NAME":"EARTH","MEAN_MOTION_DOT":"0.00000456","SITE":"AFETR","REV_AT_EPOCH":"7782","OBJECT_NAME":"STARLINK-3315","RA_OF_ASC_NODE":"32.2722","SEMIMAJOR_AXIS":"6917.900","REF_FRAME":"TEME","PERIOD":"95.438","DECAY_DATE":null,"MEAN_MOTION":"15.08833540","GP_ID":"233142761","OBJECT_TYPE":"PAYLOAD","FILE":"3924324","APOAPSIS":"540.582","NORAD_CAT_ID":"50848","MEAN_ANOMALY":"268.6444","OBJECT_ID":"2022-001AX","BSTAR":"0.00004677000000","EPHEMERIS_TYPE":"0","CLASSIFICATION_TYPE":"U","ARG_OF_PERICENTER":"91.4683","RCS_SIZE":"LARGE","MEAN_ELEMENT_THEORY":"SGP4"},{"OBJECT_NAME":"STARLINK-3311","RA_OF_ASC_NODE":"32.2184","SEMIMAJOR_AXIS":"6917.879","TIME_SYSTEM":"UTC","LAUNCH_DATE":"2022-01-06","MEAN_MOTION_DDOT":"0.0000000000000","CENTER_NAME":"EARTH","MEAN_MOTION_DOT":"0.00001455","SITE":"AFETR","REV_AT_EPOCH":"7782","TLE_LINE1":"1 50849U 22001AY  23154.90503631  .00001455  00000-0  10950-3 0  9996","TLE_LINE2":"2 50849  53.2173  32.2184 0001114  93.0121 267.0999 15.08840390 77826","EPOCH":"2023-06-03T21:43:15.137184","PERIAPSIS":"538.974","ECCENTRICITY":"0.00011140","INCLINATION":"53.2173","COUNTRY_CODE":"US","ELEMENT_SET_NO":"999","RCS_SIZE":"LARGE","MEAN_ELEMENT_THEORY":"SGP4","CLASSIFICATION_TYPE":"U","ARG_OF_PERICENTER":"93.0121","APOAPSIS":"540.515","NORAD_CAT_ID":"50849","MEAN_ANOMALY":"267.0999","BSTAR":"0.00010950000000","OBJECT_ID":"2022-001AY","EPHEMERIS_TYPE":"0","REF_FRAME":"TEME","PERIOD":"95.438","DECAY_DATE":null,"MEAN_MOTION":"15.08840390","GP_ID":"233141509","FILE":"3924324","OBJECT_TYPE":"PAYLOAD"},{"SEMIMAJOR_AXIS":"6917.897","OBJECT_NAME":"STARLINK-3312","RA_OF_ASC_NODE":"352.4998","COUNTRY_CODE":"US","ELEMENT_SET_NO":"999","ECCENTRICITY":"0.00011700","INCLINATION":"53.2169","TLE_LINE2":"2 50850  53.2169 352.4998 0001170  96.9833 263.1292 15.08834420 78918","TLE_LINE1":"1 50850U 22001AZ  23154.84247343  .00004479  00000-0  29934-3 0  9997","PERIAPSIS":"538.953","EPOCH":"2023-06-03T20:13:09.704352","REV_AT_EPOCH":"7891","SITE":"AFETR","MEAN_MOTION_DOT":"0.00004479","MEAN_MOTION_DDOT":"0.0000000000000","CENTER_NAME":"EARTH","LAUNCH_DATE":"2022-01-06","TIME_SYSTEM":"UTC","ARG_OF_PERICENTER":"96.9833","CLASSIFICATION_TYPE":"U","MEAN_ELEMENT_THEORY":"SGP4","RCS_SIZE":"LARGE","FILE":"3924324","OBJECT_TYPE":"PAYLOAD","GP_ID":"233142260","REF_FRAME":"TEME","PERIOD":"95.438","DECAY_DATE":null,"MEAN_MOTION":"15.08834420","OBJECT_ID":"2022-001AZ","BSTAR":"0.00029934000000","EPHEMERIS_TYPE":"0","NORAD_CAT_ID":"50850","MEAN_ANOMALY":"263.1292","APOAPSIS":"540.572"},{"FILE":"3924324","OBJECT_TYPE":"PAYLOAD","PERIOD":"95.438","REF_FRAME":"TEME","DECAY_DATE":null,"MEAN_MOTION":"15.08839757","GP_ID":"233142511","NORAD_CAT_ID":"50851","MEAN_ANOMALY":"274.1016","BSTAR":"0.00000067771000","OBJECT_ID":"2022-001BA","EPHEMERIS_TYPE":"0","APOAPSIS":"540.523","ARG_OF_PERICENTER":"86.0104","CLASSIFICATION_TYPE":"U","MEAN_ELEMENT_THEORY":"SGP4","RCS_SIZE":"LARGE","ECCENTRICITY":"0.00011230","INCLINATION":"53.2180","COUNTRY_CODE":"US","ELEMENT_SET_NO":"999","TLE_LINE2":"2 50851  53.2180  32.2919 0001123  86.0104 274.1016 15.08839757 77820","TLE_LINE1":"1 50851U 22001BA  23154.89127560 -.00000277  00000-0  67771-6 0  9998","EPOCH":"2023-06-03T21:23:26.211840","PERIAPSIS":"538.969","MEAN_MOTION_DOT":"-0.00000277","REV_AT_EPOCH":"7782","SITE":"AFETR","LAUNCH_DATE":"2022-01-06","TIME_SYSTEM":"UTC","MEAN_MOTION_DDOT":"0.0000000000000","CENTER_NAME":"EARTH","OBJECT_NAME":"STARLINK-3314","RA_OF_ASC_NODE":"32.2919","SEMIMAJOR_AXIS":"6917.881"},{"EPOCH":"2023-06-03T09:06:46.918080","PERIAPSIS":"539.009","TLE_LINE2":"2 51104  53.2158 144.5759 0001057  88.0575 272.0538 15.08841610 76350","TLE_LINE1":"1 51104U 22005A   23154.37970970  .00000253  00000-0  33951-4 0  9992","ELEMENT_SET_NO":"999","COUNTRY_CODE":"US","INCLINATION":"53.2158","ECCENTRICITY":"0.00010570","MEAN_MOTION_DDOT":"0.0000000000000","CENTER_NAME":"EARTH","TIME_SYSTEM":"UTC","LAUNCH_DATE":"2022-01-19","SITE":"AFETR","REV_AT_EPOCH":"7635","MEAN_MOTION_DOT":"0.00000253","SEMIMAJOR_AXIS":"6917.875","RA_OF_ASC_NODE":"144.5759","OBJECT_NAME":"STARLINK-3366","GP_ID":"233110971","DECAY_DATE":null,"MEAN_MOTION":"15.08841610","REF_FRAME":"TEME","PERIOD":"95.437","FILE":"3924076","OBJECT_TYPE":"PAYLOAD","APOAPSIS":"540.472","EPHEMERIS_TYPE":"0","OBJECT_ID":"2022-005A","BSTAR":"0.00003395100000","MEAN_ANOMALY":"272.0538","NORAD_CAT_ID":"51104","CLASSIFICATION_TYPE":"U","ARG_OF_PERICENTER":"88.0575","RCS_SIZE":"LARGE","MEAN_ELEMENT_THEORY":"SGP4"},{"APOAPSIS":"540.563","NORAD_CAT_ID":"51105","MEAN_ANOMALY":"273.0446","OBJECT_ID":"2022-005B","BSTAR":"0.00005619000000","EPHEMERIS_TYPE":"0","PERIOD":"95.438","REF_FRAME":"TEME","MEAN_MOTION":"15.08837381","DECAY_DATE":null,"GP_ID":"233143528","FILE":"3924324","OBJECT_TYPE":"PAYLOAD","RCS_SIZE":"LARGE","MEAN_ELEMENT_THEORY":"SGP4","CLASSIFICATION_TYPE":"U","ARG_OF_PERICENTER":"87.0680","TIME_SYSTEM":"UTC","LAUNCH_DATE":"2022-01-19","MEAN_MOTION_DDOT":"0.0000000000000","CENTER_NAME":"EARTH","MEAN_MOTION_DOT":"0.00000606","REV_AT_EPOCH":"7640","SITE":"AFETR","TLE_LINE2":"2 51105  53.2152 143.2034 0001170  87.0680 273.0446 15.08837381 76404","TLE_LINE1":"1 51105U 22005B   23154.68515616  .00000606  00000-0  56190-4 0  9991","EPOCH":"2023-06-03T16:26:37.492224","PERIAPSIS":"538.944","ECCENTRICITY":"0.00011700","INCLINATION":"53.2152","COUNTRY_CODE":"US","ELEMENT_SET_NO":"999","OBJECT_NAME":"STARLINK-3350","RA_OF_ASC_NODE":"143.2034","SEMIMAJOR_AXIS":"6917.888"},{"MEAN_ELEMENT_THEORY":"SGP4","RCS_SIZE":"LARGE","ARG_OF_PERICENTER":"86.1403","CLASSIFICATION_TYPE":"U","NORAD_CAT_ID":"51106","MEAN_ANOMALY":"273.9715","BSTAR":"0.00002003500000","OBJECT_ID":"2022-005C","EPHEMERIS_TYPE":"0","APOAPSIS":"540.530","OBJECT_TYPE":"PAYLOAD","FILE":"3924324","PERIOD":"95.438","REF_FRAME":"TEME","DECAY_DATE":null,"MEAN_MOTION":"15.08832383","GP_ID":"233144780","OBJECT_NAME":"STARLINK-3176","RA_OF_ASC_NODE":"142.1155","SEMIMAJOR_AXIS":"6917.904","MEAN_MOTION_DOT":"0.00000031","REV_AT_EPOCH":"7643","SITE":"AFETR","LAUNCH_DATE":"2022-01-19","TIME_SYSTEM":"UTC","MEAN_MOTION_DDOT":"0.0000000000000","CENTER_NAME":"EARTH","ECCENTRICITY":"0.00011000","INCLINATION":"53.2149","COUNTRY_CODE":"US","ELEMENT_SET_NO":"999","TLE_LINE2":"2 51106  53.2149 142.1155 0001100  86.1403 273.9715 15.08832383 76437","TLE_LINE1":"1 51106U 22005C   23154.92803490  .00000031  00000-0  20035-4 0  9990","PERIAPSIS":"539.008","EPOCH":"2023-06-03T22:16:22.215360"},{"EPOCH":"2023-06-03T17:28:53.021280","PERIAPSIS":"538.984","TLE_LINE1":"1 51107U 22005D   23154.72839145  .00000304  00000-0  37211-4 0  9992","TLE_LINE2":"2 51107  53.2160 152.9985 0001107  82.7423 277.3695 15.08838645 76276","INCLINATION":"53.2160","ECCENTRICITY":"0.00011070","ELEMENT_SET_NO":"999","COUNTRY_CODE":"US","LAUNCH_DATE":"2022-01-19","TIME_SYSTEM":"UTC","MEAN_MOTION_DDOT":"0.0000000000000","CENTER_NAME":"EARTH","MEAN_MOTION_DOT":"0.00000304","REV_AT_EPOCH":"7627","SITE":"AFETR","RA_OF_ASC_NODE":"152.9985","OBJECT_NAME":"STARLINK-3368","SEMIMAJOR_AXIS":"6917.885","DECAY_DATE":null,"MEAN_MOTION":"15.08838645","REF_FRAME":"TEME","PERIOD":"95.438","GP_ID":"233144530","OBJECT_TYPE":"PAYLOAD","FILE":"3924324","APOAPSIS":"540.515","MEAN_ANOMALY":"277.3695","NORAD_CAT_ID":"51107","EPHEMERIS_TYPE":"0","OBJECT_ID":"2022-005D","BSTAR":"0.00003721100000","CLASSIFICATION_TYPE":"U","ARG_OF_PERICENTER":"82.7423","RCS_SIZE":"LARGE","MEAN_ELEMENT_THEORY":"SGP4"},{"MEAN_ANOMALY":"275.1776","NORAD_CAT_ID":"51108","EPHEMERIS_TYPE":"0","BSTAR":"0.00003035300000","OBJECT_ID":"2022-005E","APOAPSIS":"540.480","OBJECT_TYPE":"PAYLOAD","FILE":"3924324","DECAY_DATE":null,"MEAN_MOTION":"15.08835818","REF_FRAME":"TEME","PERIOD":"95.438","GP_ID":"233143278","MEAN_ELEMENT_THEORY":"SGP4","RCS_SIZE":"LARGE","ARG_OF_PERICENTER":"84.9335","CLASSIFICATION_TYPE":"U","MEAN_MOTION_DOT":"0.00000195","REV_AT_EPOCH":"7640","SITE":"AFETR","TIME_SYSTEM":"UTC","LAUNCH_DATE":"2022-01-19","MEAN_MOTION_DDOT":"0.0000000000000","CENTER_NAME":"EARTH","INCLINATION":"53.2157","ECCENTRICITY":"0.00010440","ELEMENT_SET_NO":"999","COUNTRY_CODE":"US","EPOCH":"2023-06-03T16:21:19.408032","PERIAPSIS":"539.036","TLE_LINE1":"1 51108U 22005E   23154.68147463  .00000195  00000-0  30353-4 0  9991","TLE_LINE2":"2 51108  53.2157 143.2235 0001044  84.9335 275.1776 15.08835818 76400","RA_OF_ASC_NODE":"143.2235","OBJECT_NAME":"STARLINK-3362","SEMIMAJOR_AXIS":"6917.893"},{"OBJECT_NAME":"STARLINK-3358","RA_OF_ASC_NODE":"143.1210","SEMIMAJOR_AXIS":"6917.883","TIME_SYSTEM":"UTC","LAUNCH_DATE":"2022-01-19","MEAN_MOTION_DDOT":"0.0000000000000","CENTER_NAME":"EARTH","MEAN_MOTION_DOT":"0.00000146","SITE":"AFETR","REV_AT_EPOCH":"7617","TLE_LINE2":"2 51109  53.2160 143.1210 0001148  86.3791 273.7332 15.08839199 76176","TLE_LINE1":"1 51109U 22005F   23154.70450862  .00000146  00000-0  27261-4 0  9995","EPOCH":"2023-06-03T16:54:29.544768","PERIAPSIS":"538.954","ECCENTRICITY":"0.00011480","INCLINATION":"53.2160","COUNTRY_CODE":"US","ELEMENT_SET_NO":"999","RCS_SIZE":"LARGE","MEAN_ELEMENT_THEORY":"SGP4","CLASSIFICATION_TYPE":"U","ARG_OF_PERICENTER":"86.3791","APOAPSIS":"540.542","NORAD_CAT_ID":"51109","MEAN_ANOMALY":"273.7332","OBJECT_ID":"2022-005F","BSTAR":"0.00002726100000","EPHEMERIS_TYPE":"0","PERIOD":"95.438","REF_FRAME":"TEME","MEAN_MOTION":"15.08839199","DECAY_DATE":null,"GP_ID":"233144029","FILE":"3924324","OBJECT_TYPE":"PAYLOAD"}];
